{
    "links": {
        "self": "http://www.neowsapp.com/rest/v1/neo/3747348?api_key=iIulBulltgU6a56xZRHN4H3l9WmuAYTsLGpBGhQ2"
    },
    "id": "3747348",
    "neo_reference_id": "3747348",
    "name": "(2016 EG158)",
    "designation": "2016 EG158",
    "nasa_jpl_url": "http://ssd.jpl.nasa.gov/sbdb.cgi?sstr=3747348",
    "absolute_magnitude_h": 27.1,
    "estimated_diameter": {
        "kilometers": {
            "estimated_diameter_min": 0.0101054342,
            "estimated_diameter_max": 0.0225964377
        },
        "meters": {
            "estimated_diameter_min": 10.1054341542,
            "estimated_diameter_max": 22.5964377109
        },
        "miles": {
            "estimated_diameter_min": 0.0062792237,
            "estimated_diameter_max": 0.0140407711
        },
        "feet": {
            "estimated_diameter_min": 33.1543125905,
            "estimated_diameter_max": 74.1352966996
        }
    },
    "is_potentially_hazardous_asteroid": false,
    "close_approach_data": [
        {
            "close_approach_date": "2016-03-15",
            "close_approach_date_full": "2016-Mar-15 10:05",
            "epoch_date_close_approach": 1458036300000,
            "relative_velocity": {
                "kilometers_per_second": "6.7722729671",
                "kilometers_per_hour": "24380.1826814505",
                "miles_per_hour": "15148.897400038"
            },
            "miss_distance": {
                "astronomical": "0.0312064866",
                "lunar": "12.1393232874",
                "kilometers": "4668423.925543542",
                "miles": "2900824.1143311996"
            },
            "orbiting_body": "Earth"
        }
    ],
    "orbital_data": {
        "orbit_id": "5",
        "orbit_determination_date": "2017-04-06 08:27:24",
        "first_observation_date": "2016-03-14",
        "last_observation_date": "2016-03-19",
        "data_arc_in_days": 5,
        "observations_used": 41,
        "orbit_uncertainty": "8",
        "minimum_orbit_intersection": ".0172894",
        "jupiter_tisserand_invariant": "3.677",
        "epoch_osculation": "2457463.5",
        "eccentricity": ".4930476782123729",
        "semi_major_axis": "2.003172595854611",
        "inclination": "1.004024520350268",
        "ascending_node_longitude": "11.90100521829128",
        "orbital_period": "1035.561705909868",
        "perihelion_distance": "1.015512998409843",
        "perihelion_argument": "174.8392460912794",
        "aphelion_distance": "2.990832193299379",
        "perihelion_time": "2457472.179858452778",
        "mean_anomaly": "356.9825563989404",
        "mean_motion": ".3476374202961627",
        "equinox": "J2000",
        "orbit_class": {
            "orbit_class_type": "APO",
            "orbit_class_description": "Near-Earth asteroid orbits which cross the Earth’s orbit similar to that of 1862 Apollo",
            "orbit_class_range": "a (semi-major axis) > 1.0 AU; q (perihelion) < 1.017 AU"
        }
    },
    "is_sentry_object": false
}